AOR-E (EGNOS/PRN 120)   
1 24307U 96053A   12013.04863534 -.00000117  00000-0  10000-3 0   556
2 24307   0.0787   1.5329 0006233 281.1650 191.2636  1.00271923 56214
ARTEMIS (EGNOS/PRN 124) 
1 26863U 01029A   12012.78355475  .00000124  00000-0  10000-3 0  2351
2 26863   9.5945  56.4653 0002980 266.1923  92.4888  1.00269786 39567
MTSAT-1R (MSAS/PRN 129) 
1 28622U 05006A   12013.22111047 -.00000275  00000-0  10000-3 0  6082
2 28622   0.0308  66.1831 0003062 280.0200 345.4745  1.00270294 25173
CRE (WAAS/PRN 138)      
1 28868U 05036A   12013.33020046 -.00000068  00000-0  10000-3 0  9338
2 28868   0.0154  30.0315 0001716 243.2165 210.5108  1.00270873 23329
CRW (WAAS/PRN 135)      
1 28884U 05041A   12013.32649413  .00000085  00000-0  10000-3 0  2809
2 28884   0.0093   2.5163 0002479 278.5311 175.7006  1.00272909 22910
IOR-W (EGNOS/PRN 126)   
1 28899U 05044A   12014.01628723  .00000144  00000-0  10000-3 0   462
2 28899   2.2105 337.0808 0003017 305.7523 220.9981  1.00272449 22692
MTSAT-2 (MSAS/PRN 137)  
1 28937U 06004A   12014.53369464 -.00000238  00000-0  10000-3 0   851
2 28937   0.0306  22.4757 0001780 294.6421 133.4809  1.00271662 21670
AMR (WAAS/PRN 133)      
1 33278U 08039A   12014.29429571 -.00000135  00000-0  10000-3 0  5192
2 33278   3.0009 341.8492 0003016 305.9373 193.6881  1.00271707 12518
QZS-1 (QZSS/PRN 183)    
1 37158U 10045A   12013.94380200 -.00000069  00000-0  10000-3 0  2495
2 37158  40.7586 188.1005 0749905 270.0637 130.6597  1.00278248  4937
GSAT 8 (GAGAN/PRN 127)  
1 37605U 11022A   12012.79132278  .00000091  00000-0  10000-3 0  1415
2 37605   0.0976 257.1358 0007475   8.3402 186.1505  1.00273317  2413
